PAKSAT-MM1              
1 59915U 24104A   25211.91327936  .00000158  00000+0  00000+0 0  9993
2 59915   0.0370 239.1933 0001145 250.3403 186.2295  1.00274421  4300
2024-105A               
1 59917U 24105A   25212.18120034  .00003578  00000+0  19904-3 0  9992
2 59917  97.5966 222.5179 0012140 255.9519 104.0363 15.14263328 64391
2024-105B               
1 59918U 24105B   25212.18334029  .00003968  00000+0  22055-3 0  9998
2 59918  97.5951 222.4898 0011466 277.8325  82.1604 15.14235811 64403
2024-105C               
1 59919U 24105C   25212.22367860  .00004444  00000+0  23195-3 0  9999
2 59919  97.5932 223.2011 0011460 256.7375 103.2580 15.16406564 64465
2024-105D               
1 59920U 24105D   25212.16795242  .00006133  00000+0  30635-3 0  9997
2 59920  97.5989 223.9266 0011170 254.3472 105.6529 15.17796135 64486
2024-105E               
1 59921U 24105E   25212.19512385  .00004517  00000+0  23694-3 0  9997
2 59921  97.5939 223.1156 0011471 256.2795 103.7161 15.16217010 64452
STARLINK-31872          
1 59922U 24106A   25211.92995939 -.00000072  00000+0  68878-5 0  9997
2 59922  42.9992 145.2407 0001117 258.2772 101.7955 15.27570349 66610
STARLINK-31972          
1 59923U 24106B   25212.17351593 -.00000301  00000+0 -14157-5 0  9995
2 59923  42.9998 143.6266 0000605 285.0818  74.9967 15.27585352 66706
STARLINK-31958          
1 59924U 24106C   25211.91668981 -.00007101  00000+0 -24247-3 0  9993
2 59924  42.9993 130.5214 0001404 272.5611  52.8050 15.28405771 66783
STARLINK-31959          
1 59925U 24106D   25212.07775860  .00000325  00000+0  21339-4 0  9996
2 59925  43.0021 140.2273 0001389 276.0487  84.0206 15.27580332 66699
STARLINK-31957          
1 59926U 24106E   25212.20292371  .00002200  00000+0  89475-4 0  9992
2 59926  43.0007 142.9887 0000786 283.8162  76.2602 15.27568986 66706
STARLINK-31968          
1 59927U 24106F   25212.07985644  .00000146  00000+0  14838-4 0  9998
2 59927  43.0020 143.7827 0001488 247.0649 113.0046 15.27578915 66690
STARLINK-31970          
1 59928U 24106G   25212.16966500 -.00000543  00000+0 -10232-4 0  9996
2 59928  43.0021 143.5987 0000915 275.9752  84.0996 15.27572321 66692
STARLINK-31932          
1 59929U 24106H   25212.12786090  .00083294  00000+0  29989-2 0  9996
2 59929  43.0020 140.5764 0002727 258.0056 102.0490 15.27616464 66679
STARLINK-31956          
1 59930U 24106J   25211.50936998 -.00000069  00000+0  69947-5 0  9994
2 59930  42.9990 147.2408 0000673 269.9316  90.1459 15.27575851 66544
STARLINK-31960          
1 59931U 24106K   25212.21319989  .00000395  00000+0  23872-4 0  9996
2 59931  42.9999 143.0652 0000782 267.1097  92.9665 15.27579738 66655
STARLINK-31432          
1 59932U 24106L   25212.18508182 -.00237803  00000+0 -89443-2 0  9990
2 59932  42.9994 143.7246 0001381 120.0954 240.0035 15.27463337 66634
STARLINK-31853          
1 59933U 24106M   25211.51322232  .00000779  00000+0  37837-4 0  9997
2 59933  43.0007 147.2658 0000966 272.7190  87.3551 15.27575497 66549
STARLINK-31971          
1 59934U 24106N   25211.54323585  .00000706  00000+0  35194-4 0  9997
2 59934  43.0018 143.8844 0001548 262.4990  97.5686 15.27575553 66424
STARLINK-31962          
1 59936U 24106Q   25211.53506554 -.00000364  00000+0 -37197-5 0  9995
2 59936  43.0016 147.4330 0000768 261.3713  98.7052 15.27581489 66546
STARLINK-31879          
1 59937U 24106R   25212.19920923  .00000910  00000+0  42593-4 0  9999
2 59937  43.0000 143.8154 0000370 279.9547  80.1263 15.27578244 66693
STARLINK-31876          
1 59938U 24106S   25212.09398964  .00000884  00000+0  41648-4 0  9993
2 59938  43.0005 143.8858 0001355 261.9586  98.1112 15.27578750 65501
STARLINK-31955          
1 59939U 24106T   25211.17086727  .00001082  00000+0  48818-4 0  9990
2 59939  43.0023 148.9994 0001175 269.4325  90.6392 15.27582837 66535
STARLINK-31946          
1 59940U 24106U   25212.19535649  .00000217  00000+0  17400-4 0  9999
2 59940  43.0011 143.7897 0000741 252.3633 107.7138 15.27576667 66699
STARLINK-31948          
1 59941U 24106V   25212.18939662  .00000446  00000+0  25727-4 0  9997
2 59941  43.0014 140.1803 0000902 273.0769  86.9980 15.27579222 66682
STARLINK-31900          
1 59942U 24106W   25212.20678954 -.00003765  00000+0 -12745-3 0  9999
2 59942  43.0014 143.0144 0001578 265.1122  94.9549 15.27555717 66658
STARLINK-31973          
1 59943U 24106X   25211.52735692  .00000822  00000+0  39413-4 0  9998
2 59943  43.0015 147.3773 0001090 265.2664  94.8063 15.27573024 66534
STARLINK-31966          
1 59944U 24106Y   25212.17736501  .00000737  00000+0  36290-4 0  9996
2 59944  43.0000 143.6533 0001011 276.9198  83.1538 15.27580556 66699
STARLINK-11145 [DTC]    
1 59945U 24107A   25211.87795529 -.00002613  00000+0 -16704-4 0  9994
2 59945  53.1583 265.0308 0001044  84.5658 275.5479 15.69722635 67310
STARLINK-11113 [DTC]    
1 59947U 24107C   25211.43707550  .00000830  00000+0  11706-4 0  9999
2 59947  53.1582 266.5134 0000845  80.2987 279.8126 15.69712900 67242
STARLINK-11123 [DTC]    
1 59948U 24107D   25211.86815344 -.00000154  00000+0  35907-5 0  9998
2 59948  53.1588 264.9650 0001179  80.5666 279.5485 15.69708649 67365
STARLINK-11138 [DTC]    
1 59949U 24107E   25211.84852845  .00000570  00000+0  95668-5 0  9995
2 59949  53.1590 264.8297 0001226  84.8893 275.2264 15.69713046 67362
STARLINK-11130 [DTC]    
1 59950U 24107F   25211.86324936 -.00000338  00000+0  20680-5 0  9999
2 59950  53.1594 264.9317 0001148  89.0581 271.0568 15.69705964 67301
STARLINK-11124 [DTC]    
1 59952U 24107H   25212.17177664  .00000864  00000+0  11983-4 0  9998
2 59952  53.1588 263.2956 0001143  84.1447 275.9702 15.69718587 67420
STARLINK-11143 [DTC]    
1 59953U 24107J   25211.39794111 -.00000222  00000+0  30259-5 0  9991
2 59953  53.1589 266.9975 0001225  88.7335 271.3823 15.69707846 67239
STARLINK-11133 [DTC]    
1 59954U 24107K   25212.15706195  .00000926  00000+0  12498-4 0  9996
2 59954  53.1588 263.1985 0001017  90.8152 269.2983 15.69712914 67368
STARLINK-11144 [DTC]    
1 59955U 24107L   25211.45179175  .00001281  00000+0  15424-4 0  9998
2 59955  53.1590 266.6248 0000913  82.6023 277.5098 15.69716968 67308
STARLINK-11134 [DTC]    
1 59956U 24107M   25212.14725399 -.00000184  00000+0  33381-5 0  9996
2 59956  53.1596 263.1363 0001184  73.9998 286.1150 15.69704883 67038
STARLINK-11142 [DTC]    
1 59957U 24107N   25211.44198505  .00001019  00000+0  13265-4 0  9997
2 59957  53.1581 266.5570 0000864  86.0688 274.0429 15.69709675 67258
STARLINK-31995          
1 59958U 24107P   25211.72693726 -.00000548  00000+0 -63735-5 0  9990
2 59958  53.1617  16.4814 0001216  80.9554 279.1585 15.30190685 64618
STARLINK-31989          
1 59959U 24107Q   25211.72060668 -.00000996  00000+0 -21513-4 0  9998
2 59959  53.1611  16.4416 0001114  83.7761 276.3367 15.30191947 65811
STARLINK-31856          
1 59960U 24107R   25211.72377037  .00000517  00000+0  29578-4 0  9997
2 59960  53.1623  16.4595 0001374  90.2607 269.8551 15.30189766 65812
STARLINK-31993          
1 59961U 24107S   25211.73326794 -.00000620  00000+0 -88061-5 0  9993
2 59961  53.1607  16.5153 0001046  77.5735 282.5383 15.30193222 65752
STARLINK-31980          
1 59962U 24107T   25211.74065433 -.00000890  00000+0 -17916-4 0  9994
2 59962  53.1612  16.5591 0001097  79.2659 280.8465 15.30195277 65827
STARLINK-31991          
1 59963U 24107U   25212.18729920  .00000447  00000+0  27211-4 0  9997
2 59963  53.1622  14.3748 0001345  80.0136 280.1016 15.30196784 65891
STARLINK-31979          
1 59964U 24107V   25211.73748835 -.00000304  00000+0  18524-5 0  9995
2 59964  53.1619  16.5400 0001146  80.4117 279.7013 15.30193775 65763
PREFIRE-1               
1 59965U 24108A   25211.94607732  .00005046  00000+0  24242-3 0  9999
2 59965  97.4965   2.3202 0010904 285.3243  74.6786 15.19240254 63747
2024-110A               
1 60012U 24110A   25212.21962928  .00008494  00000+0  48451-3 0  9997
2 60012  97.5817 301.4365 0015026 106.4284 253.8600 15.12919496 63403
2024-110B               
1 60013U 24110B   25212.19069508  .00008105  00000+0  42521-3 0  9998
2 60013  97.5827 302.1009 0011002 286.6870  73.3155 15.15963024 63443
2024-110C               
1 60014U 24110C   25212.19719211  .00001244  00000+0  11334-3 0  9997
2 60014  97.5774 292.7295 0012710 141.5236 218.6895 14.96826269 62832
STARLINK-31978          
1 60016U 24111A   25211.78066492  .00003866  00000+0  14263-3 0  9996
2 60016  53.1615  26.7006 0000908  71.3054 288.8045 15.30190488 64952
STARLINK-31987          
1 60017U 24111B   25211.77432602 -.00000405  00000+0 -15504-5 0  9995
2 60017  53.1609  26.6580 0001073  78.9470 281.1652 15.30195312 65010
STARLINK-31984          
1 60018U 24111C   25211.76693348  .00000643  00000+0  33833-4 0  9997
2 60018  53.1612  26.6109 0001127  71.8897 288.2226 15.30200689 64903
STARLINK-31986          
1 60019U 24111D   25211.75743817  .00001209  00000+0  52945-4 0  9998
2 60019  53.1611  26.5505 0001282  79.8097 280.3048 15.30196557 65065
STARLINK-31883          
1 60020U 24111E   25211.71217513  .00000504  00000+0  29132-4 0  9994
2 60020  53.1611  26.9825 0001071  86.0329 274.0794 15.30198158 64998
STARLINK-31967          
1 60021U 24111F   25211.92066880 -.00000083  00000+0  93302-5 0  9991
2 60021  53.1610  25.4360 0001079  93.4517 266.6607 15.30195628 65096
STARLINK-31982          
1 60022U 24111G   25211.78371132 -.00003367  00000+0 -10167-3 0  9990
2 60022  53.1615  26.0099 0001088  83.3511 276.7613 15.30181884 65076
STARLINK-31992          
1 60023U 24111H   25211.92383778 -.00000826  00000+0 -15763-4 0  9991
2 60023  53.1620  25.4569 0001170  96.4830 263.6304 15.30192476 65092
STARLINK-31990          
1 60024U 24111J   25211.74794128  .00000354  00000+0  24092-4 0  9996
2 60024  53.1617  26.4949 0001161  86.5074 273.6060 15.30192710 65059
